GPS BIIR-2  (PRN 13)    
1 24876U 97035A   20103.12884223 -.00000003  00000-0  00000+0 0  9990
2 24876  55.4538 186.7434 0039167  62.4638 297.9840  2.00565053166487
GPS BIIR-3  (PRN 11)    
1 25933U 99055A   20102.35466204 -.00000092  00000-0  00000-0 0  9997
2 25933  52.2801  32.8988 0157003 113.2941 350.8033  2.00558178150292
GPS BIIR-4  (PRN 20)    
1 26360U 00025A   20103.38156240  .00000004  00000-0  00000-0 0  9993
2 26360  53.4919 111.9204 0049406 153.7088   7.3238  2.00567335146008
GPS BIIR-5  (PRN 28)    
1 26407U 00040A   20102.46185433 -.00000036  00000-0  00000-0 0  9992
2 26407  56.0453 304.8110 0187004 279.1941 261.2455  2.00564640144667
GPS BIIR-6  (PRN 14)    
1 26605U 00071A   20103.45121179 -.00000008  00000-0  00000+0 0  9991
2 26605  55.0294 184.0576 0114612 250.2275 199.6895  2.00568252142278
GPS BIIR-8  (PRN 16)    
1 27663U 03005A   20101.27755297 -.00000036  00000-0  00000+0 0  9999
2 27663  56.1023 304.6421 0113917  34.6528 136.1616  2.00555767125990
GPS BIIR-9  (PRN 21)    
1 27704U 03010A   20102.23158532 -.00000060  00000-0  00000-0 0  9995
2 27704  54.5811  55.7452 0249751 282.9761 185.9496  2.00580326124822
GPS BIIR-10 (PRN 22)    
1 28129U 03058A   20102.32188358  .00000008  00000-0  00000-0 0  9999
2 28129  53.3018 114.6926 0074195 291.2417  67.9981  2.00580047119507
GPS BIIR-11 (PRN 19)    
1 28190U 04009A   20102.07138646 -.00000096  00000-0  00000-0 0  9999
2 28190  56.2789   5.4007 0091075  91.0462  86.7250  2.00563060117693
GPS BIIR-12 (PRN 23)    
1 28361U 04023A   20103.46093198 -.00000008  00000-0  00000-0 0  9994
2 28361  54.0574 178.1169 0142841 234.1238 128.0537  2.00388148115785
GPS BIIR-13 (PRN 02)    
1 28474U 04045A   20103.28707767 -.00000059  00000-0  00000+0 0  9992
2 28474  54.9292  55.5620 0200124 266.1503 347.2783  2.00563639113152
GPS BIIRM-1 (PRN 17)    
1 28874U 05038A   20103.54429691 -.00000103  00000-0  00000-0 0  9996
2 28874  56.3851   2.7242 0134742 265.9295 276.2656  2.00562999106570
GPS BIIRM-2 (PRN 31)    
1 29486U 06042A   20103.44961130  .00000005  00000-0  00000-0 0  9990
2 29486  54.8848 241.0176 0095100   5.9254  25.5165  2.00577103 99163
GPS BIIRM-3 (PRN 12)    
1 29601U 06052A   20102.85058837 -.00000034  00000-0  00000-0 0  9998
2 29601  56.0876 303.4993 0078914  64.2412 296.5813  2.00559055 98137
GPS BIIRM-4 (PRN 15)    
1 32260U 07047A   20102.65611855  .00000003  00000-0  00000-0 0  9996
2 32260  53.1817 173.5570 0120287  49.2508 311.8549  2.00564142 91573
GPS BIIRM-5 (PRN 29)    
1 32384U 07062A   20102.27884052 -.00000097  00000-0  00000+0 0  9992
2 32384  56.4791   3.4431 0010952 110.9032 106.3031  2.00572379 90280
GPS BIIRM-6 (PRN 07)    
1 32711U 08012A   20103.57388958  .00000004  00000-0  00000-0 0  9998
2 32711  54.6299 240.1316 0137628 222.7991 136.0939  2.00562823 88518
GPS BIIRM-8 (PRN 05)    
1 35752U 09043A   20103.53234560  .00000009  00000-0  00000-0 0  9991
2 35752  54.5605 117.7092 0056393  43.3472 319.0422  2.00567720 78101
GPS BIIF-1  (PRN 25)    
1 36585U 10022A   20103.38382536 -.00000028  00000-0  00000+0 0  9996
2 36585  55.3618 299.5610 0090731  51.8456 308.1966  2.00576222 72321
GPS BIIF-2  (PRN 01)    
1 37753U 11036A   20103.50236830 -.00000050  00000-0  00000-0 0  9995
2 37753  56.1320  59.8711 0095180  42.6719 129.3941  2.00568994 64010
GPS BIIF-3  (PRN 24)    
1 38833U 12053A   20103.25659510  .00000003  00000-0  00000+0 0  9997
2 38833  53.6708 236.0547 0094796  37.1512 323.4730  2.00564951 55067
GPS BIIF-4  (PRN 27)    
1 39166U 13023A   20102.11632329 -.00000095  00000-0  00000-0 0  9991
2 39166  56.0516 359.4513 0080463  29.3120 331.1729  2.00565316 50591
GPS BIIF-5  (PRN 30)    
1 39533U 14008A   20102.61891968  .00000005  00000-0  00000-0 0  9994
2 39533  53.7901 241.5089 0045165 196.2979 163.5235  2.00564237 44421
GPS BIIF-6  (PRN 06)    
1 39741U 14026A   20102.90005270 -.00000051  00000-0  00000-0 0  9992
2 39741  56.1073  59.4224 0021266 296.1290  63.6285  2.00550886 43269
GPS BIIF-7  (PRN 09)    
1 40105U 14045A   20102.48491747  .00000006  00000-0  00000-0 0  9999
2 40105  54.5837 178.6233 0013754 105.6839 254.5302  2.00553719 40823
GPS BIIF-8  (PRN 03)    
1 40294U 14068A   20103.35396954  .00000011  00000-0  00000-0 0  9990
2 40294  55.3108 119.5078 0025788  35.6384 324.5694  2.00574680 39943
GPS BIIF-9  (PRN 26)    
1 40534U 15013A   20103.49227256 -.00000028  00000-0  00000+0 0  9999
2 40534  54.2790 297.5821 0046957  10.0424 350.0508  2.00572179 36992
GPS BIIF-10 (PRN 08)    
1 40730U 15033A   20103.15089995 -.00000101  00000-0  00000-0 0  9991
2 40730  55.5696 358.6126 0053584 351.1224   8.8180  2.00566369 34746
GPS BIIF-11 (PRN 10)    
1 41019U 15062A   20103.20237125  .00000011  00000-0  00000-0 0  9999
2 41019  55.3086 119.3383 0056497 211.0010 148.7000  2.00564451 32561
GPS BIIF-12 (PRN 32)    
1 41328U 16007A   20101.79785566  .00000015  00000-0  00000-0 0  9995
2 41328  54.8209 179.1193 0039680 220.7877 138.9775  2.00560061 30595
GPS BIII-1  (PRN 04)    
1 43873U 18109A   20103.46484130 -.00000007  00000-0  00000-0 0  9998
2 43873  55.0016 181.3089 0008076 223.4527 152.4621  2.00560267  9851
